JILIN-1 GAOFEN 2F       
1 49338U 21097A   26192.52264255  .00001879  00000+0  12608-3 0  9991
2 49338  97.6719 318.6678 0019652 141.3941 218.8697 15.07930159259987
YAOGAN-32 02A           
1 49383U 21099A   26192.49792355  .00000399  00000+0  84886-4 0  9990
2 49383  98.2501 326.3417 0002328 116.3261 243.8180 14.64245193249926
YAOGAN-32 02B           
1 49384U 21099B   26192.56616213  .00000388  00000+0  82852-4 0  9996
2 49384  98.2496 326.4182 0001603 114.4505 245.6864 14.64242256249932
SDGSAT 1                
1 49387U 21100A   26192.53556130  .00002012  00000+0  98546-4 0  9993
2 49387  97.2624 238.5543 0009342 175.5713 184.5606 15.19227481259613
YAOGAN-35 01A           
1 49390U 21101A   26192.23061159  .00004526  00000+0  16826-3 0  9999
2 49390  34.9873 123.8196 0007096 241.8203 118.1796 15.26906299260553
YAOGAN-35 01C           
1 49393U 21101D   26192.20045471  .00002771  00000+0  11505-3 0  9997
2 49393  35.0037 113.8132 0006653 248.4819 111.5186 15.23410661260676
TEIKYOSAT-4 (OORURI)    
1 49396U 21102B   26192.51425250  .00000951  00000+0  62946-4 0  9996
2 49396  97.3665 221.0519 0011380 201.6930 158.3819 15.09590400256396
RAISE 2                 
1 49397U 21102C   26192.05703295  .00003756  00000+0  16848-3 0  9999
2 49397  97.3249 224.4433 0008444 188.0476 172.0626 15.21780408257064
Z-SAT                   
1 49399U 21102E   26192.51620992  .00002078  00000+0  10378-3 0  9992
2 49399  97.3321 227.1015 0017259 156.8074 203.3943 15.18443881257139
HIBARI                  
1 49400U 21102F   26192.10822090  .00006934  00000+0  22478-3 0  9992
2 49400  97.3229 237.7437 0013276 113.8421 246.4214 15.32221551257850
DRUMS                   
1 49401U 21102G   26190.97509077  .00003839  00000+0  17715-3 0  9992
2 49401  97.3287 227.4436 0016203 147.4978 212.7259 15.20700560257048
KOSEN-1                 
1 49402U 21102H   26192.06013274  .00004938  00000+0  18749-3 0  9993
2 49402  97.3173 233.7563 0015277 120.4630 239.8120 15.27175528257662
STARLINK-3075           
1 49409U 21104B   26192.58335647  .00018810  00000+0  58196-3 0  9994
2 49409  53.1681  30.9952 0000941  94.0327 358.3083 15.33542369  5690
STARLINK-3147           
1 49410U 21104C   26192.22480300  .00000660  00000+0  35184-4 0  9991
2 49410  53.1616  32.5752 0001074  71.9929 288.1188 15.29358223257308
STARLINK-3162           
1 49411U 21104D   26192.58335647  .00028331  00000+0  15485-2 0  9999
2 49411  53.1596  22.6343 0001221 167.1832 236.6115 15.14100877  5704
STARLINK-3157           
1 49413U 21104F   26192.58335647  .00028212  00000+0  13226-2 0  9990
2 49413  53.1608  22.4212 0002517  91.2431  83.0453 15.19494244  5656
STARLINK-3146           
1 49414U 21104G   26192.58335647  .00038080  00000+0  17559-2 0  9998
2 49414  53.1592  32.2135 0002179  82.6130 163.6995 15.19916650  5696
STARLINK-3159           
1 49415U 21104H   26192.58335647  .00030775  00000+0  14194-2 0  9994
2 49415  53.1611  22.4055 0002558 113.1734  89.0179 15.20011465  5655
STARLINK-3133           
1 49416U 21104J   26192.58335647  .00041929  00000+0  19601-2 0  9996
2 49416  53.1601  32.4352 0001210  77.1181  94.6114 15.19399630  5657
STARLINK-3154           
1 49417U 21104K   26192.50002315  .00069827  00000+0  34291-2 0  9991
2 49417  53.1598  22.4137 0000644  86.2550 232.9303 15.17449571  5839
STARLINK-3111           
1 49418U 21104L   26192.50002315  .00068649  00000+0  32259-2 0  9995
2 49418  53.1593  32.8197 0001969  54.1128  39.0736 15.18990782  5834
STARLINK-3120           
1 49419U 21104M   26192.50002315  .00068671  00000+0  35426-2 0  9990
2 49419  53.1593  32.9281 0000364  10.6192  87.1709 15.15729378  5838
STARLINK-3110           
1 49420U 21104N   26192.50002315  .00121417  00000+0  39045-2 0  9991
2 49420  53.1598  31.7567 0001078 154.0100 146.6702 15.31341514  5670
STARLINK-3112           
1 49421U 21104P   26192.50002315  .00040058  00000+0  12966-2 0  9996
2 49421  53.1586  31.3713 0001642  90.6047 129.3700 15.31676945  5685
STARLINK-3161           
1 49422U 21104Q   26192.50002315  .00073039  00000+0  34295-2 0  9991
2 49422  53.1604  33.0294 0001228 172.5258 211.8147 15.18987220  5839
STARLINK-3135           
1 49424U 21104S   26192.50002315  .00061680  00000+0  30355-2 0  9995
2 49424  53.1598  32.8152 0001233  42.7354 134.5656 15.17434958  5531
STARLINK-3139           
1 49425U 21104T   26192.50002315  .00043352  00000+0  14013-2 0  9995
2 49425  53.1586  31.3859 0001167  83.1694 188.2148 15.31684516  5837
STARLINK-3114           
1 49426U 21104U   26192.50002315  .00068556  00000+0  31401-2 0  9999
2 49426  53.1604  32.7514 0001931 135.5854 113.5864 15.19876054  5833
STARLINK-3131           
1 49427U 21104V   26192.00002315  .00049152  00000+0  15861-2 0  9998
2 49427  53.1585  33.7036 0000931  97.1019 321.5042 15.31682090  5846
STARLINK-3121           
1 49428U 21104W   26191.50308316  .00003831  00000+0  22506-3 0  9992
2 49428  53.1617  37.2068 0001672  86.4879 273.6306 15.13983787257188
