OBJECT_NAME,OBJECT_ID,EPOCH,MEAN_MOTION,ECCENTRICITY,INCLINATION,RA_OF_ASC_NODE,ARG_OF_PERICENTER,MEAN_ANOMALY,EPHEMERIS_TYPE,CLASSIFICATION_TYPE,NORAD_CAT_ID,ELEMENT_SET_NO,REV_AT_EPOCH,BSTAR,MEAN_MOTION_DOT,MEAN_MOTION_DDOT
JILIN-1 GAOFEN 2F,2021-097A,2026-07-11T12:32:36.316320,15.07930159,.0019652,97.6719,318.6678,141.3941,218.8697,0,U,49338,999,25998,.12608E-3,.1879E-4,0
YAOGAN-32 02A,2021-099A,2026-07-11T11:57:00.594720,14.64245193,.0002328,98.2501,326.3417,116.3261,243.8180,0,U,49383,999,24992,.84886E-4,.399E-5,0
YAOGAN-32 02B,2021-099B,2026-07-11T13:35:16.408032,14.64242256,.0001603,98.2496,326.4182,114.4505,245.6864,0,U,49384,999,24993,.82852E-4,.388E-5,0
SDGSAT 1,2021-100A,2026-07-11T12:51:12.496320,15.19227481,.0009342,97.2624,238.5543,175.5713,184.5606,0,U,49387,999,25961,.98546E-4,.2012E-4,0
YAOGAN-35 01A,2021-101A,2026-07-11T05:32:04.841376,15.26906299,.0007096,34.9873,123.8196,241.8203,118.1796,0,U,49390,999,26055,.16826E-3,.4526E-4,0
YAOGAN-35 01C,2021-101D,2026-07-11T04:48:39.286944,15.23410661,.0006653,35.0037,113.8132,248.4819,111.5186,0,U,49393,999,26067,.11505E-3,.2771E-4,0
TEIKYOSAT-4 (OORURI),2021-102B,2026-07-11T12:20:31.416000,15.09590400,.001138,97.3665,221.0519,201.6930,158.3819,0,U,49396,999,25639,.62946E-4,.951E-5,0
RAISE 2,2021-102C,2026-07-11T01:22:07.646880,15.21780408,.0008444,97.3249,224.4433,188.0476,172.0626,0,U,49397,999,25706,.16848E-3,.3756E-4,0
Z-SAT,2021-102E,2026-07-11T12:23:20.537088,15.18443881,.0017259,97.3321,227.1015,156.8074,203.3943,0,U,49399,999,25713,.10378E-3,.2078E-4,0
HIBARI,2021-102F,2026-07-11T02:35:50.285760,15.32221551,.0013276,97.3229,237.7437,113.8421,246.4214,0,U,49400,999,25785,.22478E-3,.6934E-4,0
DRUMS,2021-102G,2026-07-09T23:24:07.842528,15.20700560,.0016203,97.3287,227.4436,147.4978,212.7259,0,U,49401,999,25704,.17715278E-3,.3839E-4,0
KOSEN-1,2021-102H,2026-07-11T01:26:35.468736,15.27175528,.0015277,97.3173,233.7563,120.4630,239.8120,0,U,49402,999,25766,.18749E-3,.4938E-4,0
STARLINK-3075,2021-104B,2026-07-11T14:00:01.999008,15.33542369,.0000941,53.1681,30.9952,94.0327,358.3083,0,U,49409,999,569,.58196E-3,.1881E-3,0
STARLINK-3147,2021-104C,2026-07-11T05:23:42.979200,15.29358223,.0001074,53.1616,32.5752,71.9929,288.1188,0,U,49410,999,25730,.35184E-4,.66E-5,0
STARLINK-3162,2021-104D,2026-07-11T14:00:01.999008,15.14100877,.0001221,53.1596,22.6343,167.1832,236.6115,0,U,49411,999,570,.15485E-2,.28331E-3,0
STARLINK-3157,2021-104F,2026-07-11T14:00:01.999008,15.19494244,.0002517,53.1608,22.4212,91.2431,83.0453,0,U,49413,999,565,.13226E-2,.28212E-3,0
STARLINK-3146,2021-104G,2026-07-11T14:00:01.999008,15.19916650,.0002179,53.1592,32.2135,82.6130,163.6995,0,U,49414,999,569,.17559E-2,.3808E-3,0
STARLINK-3159,2021-104H,2026-07-11T14:00:01.999008,15.20011465,.0002558,53.1611,22.4055,113.1734,89.0179,0,U,49415,999,565,.14194E-2,.30775E-3,0
STARLINK-3133,2021-104J,2026-07-11T14:00:01.999008,15.19399630,.000121,53.1601,32.4352,77.1181,94.6114,0,U,49416,999,565,.19601E-2,.41929E-3,0
STARLINK-3154,2021-104K,2026-07-11T12:00:02.000160,15.17449571,.0000644,53.1598,22.4137,86.2550,232.9303,0,U,49417,999,583,.34291E-2,.69827E-3,0
STARLINK-3111,2021-104L,2026-07-11T12:00:02.000160,15.18990782,.0001969,53.1593,32.8197,54.1128,39.0736,0,U,49418,999,583,.32259E-2,.68649E-3,0
STARLINK-3120,2021-104M,2026-07-11T12:00:02.000160,15.15729378,.0000364,53.1593,32.9281,10.6192,87.1709,0,U,49419,999,583,.35426E-2,.68671E-3,0
STARLINK-3110,2021-104N,2026-07-11T12:00:02.000160,15.31341514,.0001078,53.1598,31.7567,154.0100,146.6702,0,U,49420,999,567,.39045E-2,.121417E-2,0
STARLINK-3112,2021-104P,2026-07-11T12:00:02.000160,15.31676945,.0001642,53.1586,31.3713,90.6047,129.3700,0,U,49421,999,568,.12966E-2,.40058E-3,0
STARLINK-3161,2021-104Q,2026-07-11T12:00:02.000160,15.18987220,.0001228,53.1604,33.0294,172.5258,211.8147,0,U,49422,999,583,.34295E-2,.73039E-3,0
STARLINK-3135,2021-104S,2026-07-11T12:00:02.000160,15.17434958,.0001233,53.1598,32.8152,42.7354,134.5656,0,U,49424,999,553,.30355E-2,.6168E-3,0
STARLINK-3139,2021-104T,2026-07-11T12:00:02.000160,15.31684516,.0001167,53.1586,31.3859,83.1694,188.2148,0,U,49425,999,583,.14013E-2,.43352E-3,0
STARLINK-3114,2021-104U,2026-07-11T12:00:02.000160,15.19876054,.0001931,53.1604,32.7514,135.5854,113.5864,0,U,49426,999,583,.31401E-2,.68556E-3,0
STARLINK-3131,2021-104V,2026-07-11T00:00:02.000160,15.31682090,.0000931,53.1585,33.7036,97.1019,321.5042,0,U,49427,999,584,.15861E-2,.49152E-3,0
STARLINK-3121,2021-104W,2026-07-10T12:04:26.385024,15.13983787,.0001672,53.1617,37.2068,86.4879,273.6306,0,U,49428,999,25718,.22506E-3,.3831E-4,0
